STARLINK-32003          
1 60097U 24117G   24203.58334491 -.01712356  00000+0 -29620-1 0  9991
2 60097  53.1589 288.1196 0001614  77.5344 138.9055 15.53527841  5593
STARLINK-32026          
1 60098U 24117H   24203.58334491 -.01715537  00000+0 -29682-1 0  9994
2 60098  53.1591 288.1115 0001333  83.3867 136.8804 15.53530032  5394
STARLINK-31732          
1 60099U 24117J   24203.58334491 -.01711892  00000+0 -29612-1 0  9998
2 60099  53.1589 288.1140 0001526  82.1617 136.1919 15.53527767  5542
STARLINK-31996          
1 60100U 24117K   24203.58334491 -.01712224  00000+0 -29619-1 0  9998
2 60100  53.1592 288.1091 0001510  81.3784 140.8029 15.53527382  5449
STARLINK-31999          
1 60101U 24117L   24203.58334491 -.01716013  00000+0 -29691-1 0  9999
2 60101  53.1591 288.1044 0001330  87.3719 136.7224 15.53530262  5599
STARLINK-31954          
1 60102U 24117M   24203.58334491 -.01714856  00000+0 -29669-1 0  9998
2 60102  53.1588 288.0952 0001328  82.5009 143.5069 15.53529905  5392
STARLINK-32013          
1 60103U 24117N   24203.58334491 -.01715657  00000+0 -29685-1 0  9997
2 60103  53.1591 288.0978 0001269  87.5649 140.3565 15.53529994  5590
STARLINK-32009          
1 60104U 24117P   24203.58334491 -.01720518  00000+0 -27113-1 0  9994
2 60104  53.1585 287.5167 0001259  64.7523  81.2122 15.56063265  5662
STARLINK-32018          
1 60105U 24117Q   24203.58334491 -.01714799  00000+0 -29668-1 0  9996
2 60105  53.1592 288.0856 0001385  83.2175 150.4452 15.53529298  5666
STARLINK-32045          
1 60106U 24117R   24203.58334491 -.01715047  00000+0 -29672-1 0  9999
2 60106  53.1591 288.0899 0001444  81.1934 150.5552 15.53529484  5444
STARLINK-32035          
1 60107U 24117S   24203.58334491 -.01712868  00000+0 -29632-1 0  9994
2 60107  53.1590 288.0822 0001433  78.3182 157.2589 15.53527602  5546
STARLINK-32042          
1 60108U 24117T   24203.58334491 -.01712443  00000+0 -29623-1 0  9994
2 60108  53.1590 288.0741 0001517  83.5025 155.9015 15.53527533  5502
STARLINK-32040          
1 60109U 24117U   24203.58334491 -.01712781  00000+0 -29629-1 0  9996
2 60109  53.1590 288.0781 0001540  80.2409 157.2492 15.53527818  5547
STARLINK-32001          
1 60110U 24117V   24203.58334491 -.01712331  00000+0 -29621-1 0  9991
2 60110  53.1591 288.0699 0001500  84.5186 156.7992 15.53527539  5597
STARLINK-32015          
1 60111U 24117W   24203.58334491 -.01712840  00000+0 -29630-1 0  9997
2 60111  53.1590 288.0650 0001535  82.6111 160.6203 15.53528000  5446
STARLINK-32024          
1 60112U 24117X   24203.58334491 -.01713103  00000+0 -29636-1 0  9997
2 60112  53.1590 288.0611 0001432  83.7258 161.4193 15.53528117  5552
STARLINK-11201 [DTC]    
1 60113U 24118A   24203.49753398  .00074576  00000+0  45628-3 0  9992
2 60113  53.1532 282.5644 0003540  31.5015 328.6218 15.76691940  4327
STARLINK-11198 [DTC]    
1 60114U 24118B   24203.49545785  .00053292  00000+0  32748-3 0  9993
2 60114  53.1535 282.5509 0001849  92.9642 267.1591 15.76733844  4329
STARLINK-11112 [DTC]    
1 60115U 24118C   24203.49239765  .00114653  00000+0  69335-3 0  9993
2 60115  53.1535 282.5295 0002364 161.9965 198.1140 15.76784042  4329
STARLINK-11210 [DTC]    
1 60116U 24118D   24203.48746060  .00053517  00000+0  32980-3 0  9991
2 60116  53.1542 282.4950 0004353  21.6748 338.4457 15.76658407  4321
STARLINK-11203 [DTC]    
1 60117U 24118E   24203.48261637 -.00016963  00000+0 -99974-4 0  9997
2 60117  53.1554 282.4635 0002085  32.3702 327.7446 15.76695809  4320
STARLINK-11177 [DTC]    
1 60118U 24118F   24203.54115604  .00082355  00000+0  49899-3 0  9993
2 60118  53.1543 282.1159 0002007  36.2093 323.9064 15.76877931  4330
STARLINK-11127 [DTC]    
1 60119U 24118G   24203.47284371  .00048836  00000+0  30107-3 0  9992
2 60119  53.1549 282.3989 0001288 114.3098 245.8057 15.76698063  4323
STARLINK-11164 [DTC]    
1 60120U 24118H   24203.46795118  .00163401  00000+0  98596-3 0  9991
2 60120  53.1532 282.3643 0001250 122.8942 237.2199 15.76666976  4325
STARLINK-11119 [DTC]    
1 60121U 24118J   24203.52159256  .00389925  00000+0  22669-2 0  9994
2 60121  53.1598 281.9897 0001247  86.1351 273.9812 15.76847428  4339
STARLINK-11157 [DTC]    
1 60122U 24118K   24203.46310228  .00253357  00000+0  15082-2 0  9996
2 60122  53.1605 282.3414 0001561  91.6240 268.4960 15.76700260  4320
STARLINK-11162 [DTC]    
1 60123U 24118L   24203.51670410  .00261013  00000+0  15413-2 0  9991
2 60123  53.1577 281.9573 0001931 131.3101 228.8087 15.76860281  4330
STARLINK-11161 [DTC]    
1 60124U 24118M   24203.51182321  .00050018  00000+0  30954-3 0  9990
2 60124  53.1608 281.9257 0003015  37.9398 322.1835 15.76597586  4333
STARLINK-11160 [DTC]    
1 60125U 24118N   24203.44354923  .00025913  00000+0  16136-3 0  9994
2 60125  53.1627 282.2105 0006747 153.2023 206.9348 15.76772920  4327
STARLINK-31846          
1 60126U 24118P   24203.58334491 -.02157680  00000+0 -53380-1 0  9999
2 60126  53.1592 283.8365 0001091  63.4666 294.0695 15.43663223  5497
STARLINK-31840          
1 60127U 24118Q   24203.58334491 -.00047663  00000+0 -11882-2 0  9999
2 60127  53.1588 284.0251 0001345  83.3402 179.2529 15.39640864  5414
STARLINK-31813          
1 60128U 24118R   24203.58334491 -.00003684  00000+0 -82179-4 0  9994
2 60128  53.1585 283.9224 0001817 101.7065 212.4102 15.39606618  5421
STARLINK-31845          
1 60129U 24118S   24203.45157267 -.00000992  00000+0 -97752-5 0  9998
2 60129  53.1607 284.4290 0001421  79.8780 280.2389 15.49317145  4295
STARLINK-31838          
1 60130U 24118T   24203.45088629  .00049900  00000+0  89811-3 0  9990
2 60130  53.1584 284.4252 0000828  70.2851 289.8247 15.49354008  4290
STARLINK-31785          
1 60131U 24118U   24203.51573891  .00056095  00000+0  10077-2 0  9998
2 60131  53.1586 284.1163 0001100  61.6314 298.4806 15.49357325  4307
STARLINK-31792          
1 60132U 24118V   24203.58334491 -.01690756  00000+0 -17020-1 0  9992
2 60132  53.1613 281.3844 0001330  53.6804  82.4532 15.67941567  5411
GOES 19                 
1 60133U 24119A   24201.83961602 -.00000208  00000+0  00000+0 0  9993
2 60133   0.1102 252.4711 0015593  16.5882 241.8908  1.00586154   332
FALCON HEAVY R/B        
1 60134U 24119B   24203.22373267 -.00000081  00000+0  00000+0 0  9992
2 60134   4.3804  94.4957 3014405 181.5335 176.9966  1.51715715   395
STARLINK-32043          
1 60135U 24120A   24203.58334491 -.01564773  00000+0 -19429-1 0  9992
2 60135  53.1569 219.7910 0000751  74.0619 315.0598 15.62494372  4867
STARLINK-32112          
1 60136U 24120B   24203.58334491 -.01561278  00000+0 -19382-1 0  9998
2 60136  53.1560 219.7864 0000758  79.7579 311.5097 15.62491882  5073
STARLINK-32050          
1 60137U 24120C   24203.58334491 -.01561273  00000+0 -19382-1 0  9994
2 60137  53.1564 219.7829 0000743  84.2230 309.1891 15.62491934  4698
STARLINK-32025          
1 60138U 24120D   24203.58334491 -.01563335  00000+0 -19409-1 0  9996
2 60138  53.1574 219.7748 0000811  69.2398 328.4601 15.62493714  4808
STARLINK-31867          
1 60139U 24120E   24203.58334491 -.01561283  00000+0 -19382-1 0  9997
2 60139  53.1573 219.7791 0000750  79.8969 315.6596 15.62492072  4862
STARLINK-31694          
1 60140U 24120F   24203.58334491 -.01561200  00000+0 -19381-1 0  9997
2 60140  53.1568 219.7689 0000732  77.8347 322.0108 15.62492009  5077
STARLINK-32036          
1 60141U 24120G   24203.58334491 -.01561870  00000+0 -19389-1 0  9999
2 60141  53.1568 219.7644 0000891  70.4813 331.5090 15.62492345  5070
STARLINK-32031          
1 60142U 24120H   24203.58334491 -.01561919  00000+0 -19390-1 0  9996
2 60142  53.1561 219.7598 0000836  69.9961 334.1386 15.62492418  5076
STARLINK-32027          
1 60143U 24120J   24203.58334491 -.00895269  00000+0 -81375-2 0  9997
2 60143  53.1491 219.2380 0001104  66.4834 230.9477 15.69957132  5073
STARLINK-32033          
1 60144U 24120K   24203.58334491 -.01561289  00000+0 -19382-1 0  9999
2 60144  53.1563 219.7516 0000786  81.9594 326.4647 15.62491830  4867
STARLINK-32029          
1 60145U 24120L   24203.58334491 -.01566219  00000+0 -19448-1 0  9991
2 60145  53.1563 219.7468 0000836  84.4847 326.0827 15.62495168  4920
STARLINK-32127          
1 60146U 24120M   24203.58334491 -.01562636  00000+0 -19400-1 0  9999
2 60146  53.1557 219.7418 0000792  87.2653 325.4475 15.62492835  4869
STARLINK-32019          
1 60147U 24120N   24203.58334491 -.01566279  00000+0 -19449-1 0  9990
2 60147  53.1548 219.7365 0000827  73.1318 341.7247 15.62495005  4929
STARLINK-32021          
1 60148U 24120P   24203.58334491 -.01563772  00000+0 -19415-1 0  9999
2 60148  53.1558 219.7332 0000852  93.3699 323.6320 15.62493433  5070
STARLINK-32022          
1 60149U 24120Q   24203.58334491 -.01565302  00000+0 -19436-1 0  9994
2 60149  53.1553 219.7287 0000777  75.4484 343.6974 15.62494614  5073
STARLINK-32014          
1 60150U 24120R   24203.58334491 -.01564673  00000+0 -19426-1 0  9995
2 60150  53.1560 219.7242 0001010  53.6286   7.6609 15.62494039  4929
STARLINK-32004          
1 60151U 24120S   24203.58334491 -.01566594  00000+0 -19453-1 0  9990
2 60151  53.1550 219.7154 0000860  76.2991 349.2802 15.62495215  5071
STARLINK-32147          
1 60152U 24120T   24203.58334491 -.01562797  00000+0 -19402-1 0  9996
2 60152  53.1560 219.7195 0000828  88.0903 335.3455 15.62492834  4923
STARLINK-32131          
1 60153U 24120U   24203.58334491 -.01561707  00000+0 -19387-1 0  9999
2 60153  53.1560 219.7056 0000866  76.6472 353.2227 15.62492186  5079
STARLINK-32145          
1 60154U 24120V   24203.58334491 -.01565647  00000+0 -19440-1 0  9997
2 60154  53.1560 219.7113 0000894  74.4580 353.2662 15.62494627  4963
